<?xml version="1.0" encoding="UTF-8"?>
<ndm xmlns:xsi="http://www.w3.org/2001/XMLSchema-instance" xsi:noNamespaceSchemaLocation="https://sanaregistry.org/r/ndmxml_unqualified/ndmxml-2.0.0-master-2.0.xsd">
<omm id="CCSDS_OMM_VERS" version="2.0">
<header><CREATION_DATE/><ORIGINATOR/></header><body><segment><metadata><OBJECT_NAME>KUIPER-00167</OBJECT_NAME><OBJECT_ID>2025-217U</OBJECT_ID><CENTER_NAME>EARTH</CENTER_NAME><REF_FRAME>TEME</REF_FRAME><TIME_SYSTEM>UTC</TIME_SYSTEM><MEAN_ELEMENT_THEORY>SGP4</MEAN_ELEMENT_THEORY></metadata><data><meanElements><EPOCH>2025-11-20T08:00:01.999872</EPOCH><MEAN_MOTION>15.19436947</MEAN_MOTION><ECCENTRICITY>.00095925</ECCENTRICITY><INCLINATION>51.8733</INCLINATION><RA_OF_ASC_NODE>174.1194</RA_OF_ASC_NODE><ARG_OF_PERICENTER>262.6871</ARG_OF_PERICENTER><MEAN_ANOMALY>266.8972</MEAN_ANOMALY></meanElements><tleParameters><EPHEMERIS_TYPE>0</EPHEMERIS_TYPE><CLASSIFICATION_TYPE>U</CLASSIFICATION_TYPE><NORAD_CAT_ID>65780</NORAD_CAT_ID><ELEMENT_SET_NO>999</ELEMENT_SET_NO><REV_AT_EPOCH>270</REV_AT_EPOCH><BSTAR>-.14230192E-1</BSTAR><MEAN_MOTION_DOT>-.294369E-2</MEAN_MOTION_DOT><MEAN_MOTION_DDOT>0</MEAN_MOTION_DDOT></tleParameters></data></segment></body></omm>
<omm id="CCSDS_OMM_VERS" version="2.0">
<header><CREATION_DATE/><ORIGINATOR/></header><body><segment><metadata><OBJECT_NAME>KUIPER-00168</OBJECT_NAME><OBJECT_ID>2025-217V</OBJECT_ID><CENTER_NAME>EARTH</CENTER_NAME><REF_FRAME>TEME</REF_FRAME><TIME_SYSTEM>UTC</TIME_SYSTEM><MEAN_ELEMENT_THEORY>SGP4</MEAN_ELEMENT_THEORY></metadata><data><meanElements><EPOCH>2025-11-19T21:08:17.883456</EPOCH><MEAN_MOTION>15.38574663</MEAN_MOTION><ECCENTRICITY>.00031897</ECCENTRICITY><INCLINATION>51.8695</INCLINATION><RA_OF_ASC_NODE>174.5509</RA_OF_ASC_NODE><ARG_OF_PERICENTER>174.4794</ARG_OF_PERICENTER><MEAN_ANOMALY>185.6229</MEAN_ANOMALY></meanElements><tleParameters><EPHEMERIS_TYPE>0</EPHEMERIS_TYPE><CLASSIFICATION_TYPE>U</CLASSIFICATION_TYPE><NORAD_CAT_ID>65781</NORAD_CAT_ID><ELEMENT_SET_NO>999</ELEMENT_SET_NO><REV_AT_EPOCH>853</REV_AT_EPOCH><BSTAR>.11092873E-2</BSTAR><MEAN_MOTION_DOT>.42768E-3</MEAN_MOTION_DOT><MEAN_MOTION_DDOT>0</MEAN_MOTION_DDOT></tleParameters></data></segment></body></omm>
<omm id="CCSDS_OMM_VERS" version="2.0">
<header><CREATION_DATE/><ORIGINATOR/></header><body><segment><metadata><OBJECT_NAME>KUIPER-00169</OBJECT_NAME><OBJECT_ID>2025-217W</OBJECT_ID><CENTER_NAME>EARTH</CENTER_NAME><REF_FRAME>TEME</REF_FRAME><TIME_SYSTEM>UTC</TIME_SYSTEM><MEAN_ELEMENT_THEORY>SGP4</MEAN_ELEMENT_THEORY></metadata><data><meanElements><EPOCH>2025-11-19T23:19:29.073792</EPOCH><MEAN_MOTION>15.38001703</MEAN_MOTION><ECCENTRICITY>.00034919</ECCENTRICITY><INCLINATION>51.8712</INCLINATION><RA_OF_ASC_NODE>174.4014</RA_OF_ASC_NODE><ARG_OF_PERICENTER>240.9296</ARG_OF_PERICENTER><MEAN_ANOMALY>119.1341</MEAN_ANOMALY></meanElements><tleParameters><EPHEMERIS_TYPE>0</EPHEMERIS_TYPE><CLASSIFICATION_TYPE>U</CLASSIFICATION_TYPE><NORAD_CAT_ID>65782</NORAD_CAT_ID><ELEMENT_SET_NO>999</ELEMENT_SET_NO><REV_AT_EPOCH>854</REV_AT_EPOCH><BSTAR>.13618844E-2</BSTAR><MEAN_MOTION_DOT>.51681E-3</MEAN_MOTION_DOT><MEAN_MOTION_DDOT>0</MEAN_MOTION_DDOT></tleParameters></data></segment></body></omm>
<omm id="CCSDS_OMM_VERS" version="2.0">
<header><CREATION_DATE/><ORIGINATOR/></header><body><segment><metadata><OBJECT_NAME>KUIPER-00170</OBJECT_NAME><OBJECT_ID>2025-217X</OBJECT_ID><CENTER_NAME>EARTH</CENTER_NAME><REF_FRAME>TEME</REF_FRAME><TIME_SYSTEM>UTC</TIME_SYSTEM><MEAN_ELEMENT_THEORY>SGP4</MEAN_ELEMENT_THEORY></metadata><data><meanElements><EPOCH>2025-11-19T14:49:56.385408</EPOCH><MEAN_MOTION>15.36589079</MEAN_MOTION><ECCENTRICITY>.0005722</ECCENTRICITY><INCLINATION>51.8658</INCLINATION><RA_OF_ASC_NODE>176.5029</RA_OF_ASC_NODE><ARG_OF_PERICENTER>275.3108</ARG_OF_PERICENTER><MEAN_ANOMALY>84.7225</MEAN_ANOMALY></meanElements><tleParameters><EPHEMERIS_TYPE>0</EPHEMERIS_TYPE><CLASSIFICATION_TYPE>U</CLASSIFICATION_TYPE><NORAD_CAT_ID>65783</NORAD_CAT_ID><ELEMENT_SET_NO>999</ELEMENT_SET_NO><REV_AT_EPOCH>848</REV_AT_EPOCH><BSTAR>.76836E-3</BSTAR><MEAN_MOTION_DOT>.27597E-3</MEAN_MOTION_DOT><MEAN_MOTION_DDOT>0</MEAN_MOTION_DDOT></tleParameters></data></segment></body></omm>
<omm id="CCSDS_OMM_VERS" version="2.0">
<header><CREATION_DATE/><ORIGINATOR/></header><body><segment><metadata><OBJECT_NAME>KUIPER-00171</OBJECT_NAME><OBJECT_ID>2025-217Y</OBJECT_ID><CENTER_NAME>EARTH</CENTER_NAME><REF_FRAME>TEME</REF_FRAME><TIME_SYSTEM>UTC</TIME_SYSTEM><MEAN_ELEMENT_THEORY>SGP4</MEAN_ELEMENT_THEORY></metadata><data><meanElements><EPOCH>2025-11-20T08:00:01.999872</EPOCH><MEAN_MOTION>15.65618376</MEAN_MOTION><ECCENTRICITY>.00082976</ECCENTRICITY><INCLINATION>51.8583</INCLINATION><RA_OF_ASC_NODE>169.6002</RA_OF_ASC_NODE><ARG_OF_PERICENTER>279.1273</ARG_OF_PERICENTER><MEAN_ANOMALY>320.6370</MEAN_ANOMALY></meanElements><tleParameters><EPHEMERIS_TYPE>0</EPHEMERIS_TYPE><CLASSIFICATION_TYPE>U</CLASSIFICATION_TYPE><NORAD_CAT_ID>65784</NORAD_CAT_ID><ELEMENT_SET_NO>999</ELEMENT_SET_NO><REV_AT_EPOCH>539</REV_AT_EPOCH><BSTAR>-.80778689E-3</BSTAR><MEAN_MOTION_DOT>-.82838E-3</MEAN_MOTION_DOT><MEAN_MOTION_DDOT>0</MEAN_MOTION_DDOT></tleParameters></data></segment></body></omm>
<omm id="CCSDS_OMM_VERS" version="2.0">
<header><CREATION_DATE/><ORIGINATOR/></header><body><segment><metadata><OBJECT_NAME>KUIPER-00172</OBJECT_NAME><OBJECT_ID>2025-217Z</OBJECT_ID><CENTER_NAME>EARTH</CENTER_NAME><REF_FRAME>TEME</REF_FRAME><TIME_SYSTEM>UTC</TIME_SYSTEM><MEAN_ELEMENT_THEORY>SGP4</MEAN_ELEMENT_THEORY></metadata><data><meanElements><EPOCH>2025-11-19T21:24:39.596544</EPOCH><MEAN_MOTION>15.38351847</MEAN_MOTION><ECCENTRICITY>.00028747</ECCENTRICITY><INCLINATION>51.8705</INCLINATION><RA_OF_ASC_NODE>174.6214</RA_OF_ASC_NODE><ARG_OF_PERICENTER>234.6416</ARG_OF_PERICENTER><MEAN_ANOMALY>125.4302</MEAN_ANOMALY></meanElements><tleParameters><EPHEMERIS_TYPE>0</EPHEMERIS_TYPE><CLASSIFICATION_TYPE>U</CLASSIFICATION_TYPE><NORAD_CAT_ID>65785</NORAD_CAT_ID><ELEMENT_SET_NO>999</ELEMENT_SET_NO><REV_AT_EPOCH>853</REV_AT_EPOCH><BSTAR>.12296757E-2</BSTAR><MEAN_MOTION_DOT>.47133E-3</MEAN_MOTION_DOT><MEAN_MOTION_DDOT>0</MEAN_MOTION_DDOT></tleParameters></data></segment></body></omm>
<omm id="CCSDS_OMM_VERS" version="2.0">
<header><CREATION_DATE/><ORIGINATOR/></header><body><segment><metadata><OBJECT_NAME>KUIPER-00173</OBJECT_NAME><OBJECT_ID>2025-217AA</OBJECT_ID><CENTER_NAME>EARTH</CENTER_NAME><REF_FRAME>TEME</REF_FRAME><TIME_SYSTEM>UTC</TIME_SYSTEM><MEAN_ELEMENT_THEORY>SGP4</MEAN_ELEMENT_THEORY></metadata><data><meanElements><EPOCH>2025-11-19T23:10:29.231040</EPOCH><MEAN_MOTION>15.38043204</MEAN_MOTION><ECCENTRICITY>.00028979</ECCENTRICITY><INCLINATION>51.8665</INCLINATION><RA_OF_ASC_NODE>174.3595</RA_OF_ASC_NODE><ARG_OF_PERICENTER>220.6598</ARG_OF_PERICENTER><MEAN_ANOMALY>139.4172</MEAN_ANOMALY></meanElements><tleParameters><EPHEMERIS_TYPE>0</EPHEMERIS_TYPE><CLASSIFICATION_TYPE>U</CLASSIFICATION_TYPE><NORAD_CAT_ID>65786</NORAD_CAT_ID><ELEMENT_SET_NO>999</ELEMENT_SET_NO><REV_AT_EPOCH>854</REV_AT_EPOCH><BSTAR>.83892256E-3</BSTAR><MEAN_MOTION_DOT>.31641E-3</MEAN_MOTION_DOT><MEAN_MOTION_DDOT>0</MEAN_MOTION_DDOT></tleParameters></data></segment></body></omm>
<omm id="CCSDS_OMM_VERS" version="2.0">
<header><CREATION_DATE/><ORIGINATOR/></header><body><segment><metadata><OBJECT_NAME>KUIPER-00174</OBJECT_NAME><OBJECT_ID>2025-217AB</OBJECT_ID><CENTER_NAME>EARTH</CENTER_NAME><REF_FRAME>TEME</REF_FRAME><TIME_SYSTEM>UTC</TIME_SYSTEM><MEAN_ELEMENT_THEORY>SGP4</MEAN_ELEMENT_THEORY></metadata><data><meanElements><EPOCH>2025-11-19T07:13:57.121248</EPOCH><MEAN_MOTION>15.38360125</MEAN_MOTION><ECCENTRICITY>.00036066</ECCENTRICITY><INCLINATION>51.8705</INCLINATION><RA_OF_ASC_NODE>177.4130</RA_OF_ASC_NODE><ARG_OF_PERICENTER>186.8134</ARG_OF_PERICENTER><MEAN_ANOMALY>173.2805</MEAN_ANOMALY></meanElements><tleParameters><EPHEMERIS_TYPE>0</EPHEMERIS_TYPE><CLASSIFICATION_TYPE>U</CLASSIFICATION_TYPE><NORAD_CAT_ID>65787</NORAD_CAT_ID><ELEMENT_SET_NO>999</ELEMENT_SET_NO><REV_AT_EPOCH>844</REV_AT_EPOCH><BSTAR>.15072102E-2</BSTAR><MEAN_MOTION_DOT>.57962E-3</MEAN_MOTION_DOT><MEAN_MOTION_DDOT>0</MEAN_MOTION_DDOT></tleParameters></data></segment></body></omm>

</ndm>
