KUIPER-00167            
1 65780U 25217U   25324.33335648 -.00294369  00000+0 -14230-1 0  9999
2 65780  51.8733 174.1194 0009592 262.6871 266.8972 15.19436947  2707
KUIPER-00168            
1 65781U 25217V   25323.88076254  .00042768  00000+0  11093-2 0  9991
2 65781  51.8695 174.5509 0003189 174.4794 185.6229 15.38574663  8538
KUIPER-00169            
1 65782U 25217W   25323.97186428  .00051681  00000+0  13619-2 0  9997
2 65782  51.8712 174.4014 0003491 240.9296 119.1341 15.38001703  8549
KUIPER-00170            
1 65783U 25217X   25323.61801372  .00027597  00000+0  76836-3 0  9991
2 65783  51.8658 176.5029 0005722 275.3108  84.7225 15.36589079  8487
KUIPER-00171            
1 65784U 25217Y   25324.33335648 -.00082838  00000+0 -80779-3 0  9992
2 65784  51.8583 169.6002 0008297 279.1273 320.6370 15.65618376  5399
KUIPER-00172            
1 65785U 25217Z   25323.89212496  .00047133  00000+0  12297-2 0  9994
2 65785  51.8705 174.6214 0002874 234.6416 125.4302 15.38351847  8539
KUIPER-00173            
1 65786U 25217AA  25323.96561610  .00031641  00000+0  83892-3 0  9995
2 65786  51.8665 174.3595 0002897 220.6598 139.4172 15.38043204  8541
KUIPER-00174            
1 65787U 25217AB  25323.30135557  .00057962  00000+0  15072-2 0  9999
2 65787  51.8705 177.4130 0003606 186.8134 173.2805 15.38360125  8446
